{"type" : "FeatureCollection", "features" : [{"type" : "Feature", "properties" : {"zone_id" : "Z-01", "name" : "Beaver Shores", "county" : "Benton", "premises" : 1272, "commercial" : 15, "median_value" : 345685, "phase" : 1, "pct_los" : 87}, "geometry" : {"type":"MultiPolygon","coordinates":[[[[-94.058734723,36.318578477],[-94.057532756,36.320390265],[-94.043598492,36.33472103],[-94.037533967,36.340840931],[-94.036657665,36.340141746],[-94.025115753,36.33410148],[-94.003646876,36.334229293],[-94.000399394,36.335021274],[-93.999552251,36.335154235],[-93.998266392,36.334351769],[-93.986652057,36.32651518],[-93.983626061,36.323273788],[-93.980389217,36.310249735],[-93.987781763,36.309046228],[-94.003033807,36.292674829],[-94.003188322,36.287828533],[-94.003104306,36.28641716],[-94.004265978,36.277494835],[-94.015781535,36.278280359],[-94.025458026,36.2847314],[-94.028278708,36.287258425],[-94.040875817,36.299837094],[-94.057840725,36.316404553],[-94.058734723,36.318578477]]]]}}, {"type" : "Feature", "properties" : {"zone_id" : "Z-02", "name" : "Prairie Creek", "county" : "Benton", "premises" : 1134, "commercial" : 58, "median_value" : 390420, "phase" : 1, "pct_los" : 60}, "geometry" : {"type":"MultiPolygon","coordinates":[[[[-94.083186172,36.380826336],[-94.080087705,36.386376821],[-94.073327055,36.380513446],[-94.055165824,36.366724044],[-94.04419764,36.358118258],[-94.041774162,36.356060319],[-94.037566366,36.341798361],[-94.038360859,36.340427892],[-94.043174023,36.335370621],[-94.05820613,36.320082022],[-94.081196643,36.333534405],[-94.087332419,36.33369116],[-94.09102431,36.334690826],[-94.098368109,36.340345367],[-94.098733675,36.340665738],[-94.099535102,36.34235929],[-94.101292387,36.347919794],[-94.100392018,36.351016308],[-94.092714418,36.362103892],[-94.083186172,36.380826336]]]]}}, {"type" : "Feature", "properties" : {"zone_id" : "Z-03", "name" : "Monte Ne", "county" : "Benton", "premises" : 935, "commercial" : 9, "median_value" : 309365, "phase" : 1, "pct_los" : 54}, "geometry" : {"type":"MultiPolygon","coordinates":[[[[-94.098606948,36.286456337],[-94.094457942,36.292586877],[-94.084722652,36.300320496],[-94.081124606,36.302344439],[-94.059737193,36.317318731],[-94.056005343,36.314074992],[-94.038925477,36.297382807],[-94.026970302,36.285554567],[-94.027025312,36.284553235],[-94.031344545,36.274076123],[-94.044335612,36.268328125],[-94.05832894,36.262092367],[-94.076018043,36.253647898],[-94.08548453,36.250606001],[-94.097407629,36.274393876],[-94.098196335,36.278171169],[-94.098606948,36.286456337]]]]}}, {"type" : "Feature", "properties" : {"zone_id" : "Z-04", "name" : "Creech", "county" : "Benton", "premises" : 851, "commercial" : 3, "median_value" : 286355, "phase" : 2, "pct_los" : 76}, "geometry" : {"type":"MultiPolygon","coordinates":[[[[-94.081674782,36.247314948],[-94.078224053,36.252057648],[-94.07435632,36.253664139],[-94.059360654,36.260065581],[-94.050977323,36.263550694],[-94.036557466,36.269409166],[-94.023747042,36.274407592],[-94.012993091,36.275480713],[-94.009119741,36.272305862],[-94.00461544,36.264533929],[-94.003418426,36.259870011],[-94.010686001,36.25076893],[-94.006582564,36.239664288],[-94.005708696,36.234589007],[-94.009939037,36.226828199],[-94.014372958,36.22259647],[-94.015703015,36.22147958],[-94.022547405,36.217897458],[-94.031858644,36.208527422],[-94.041765107,36.206327151],[-94.042702878,36.206660131],[-94.042811778,36.207597582],[-94.042897479,36.208232876],[-94.046931,36.219400848],[-94.059156877,36.226568255],[-94.06500107,36.227881024],[-94.073781256,36.238877411],[-94.081674782,36.247314948]]]]}}, {"type" : "Feature", "properties" : {"zone_id" : "Z-05", "name" : "Lost Bridge Village", "county" : "Benton", "premises" : 596, "commercial" : 4, "median_value" : 427268, "phase" : 2, "pct_los" : 88}, "geometry" : {"type":"MultiPolygon","coordinates":[[[[-93.964861561,36.393787914],[-93.96454588,36.395863396],[-93.961284741,36.398732151],[-93.953085035,36.400548212],[-93.949111883,36.400436684],[-93.9359212,36.399591957],[-93.91213437,36.398603604],[-93.909085783,36.398566577],[-93.897438188,36.39717326],[-93.900297575,36.373613032],[-93.894981661,36.364502039],[-93.90426385,36.359534294],[-93.907847383,36.361056439],[-93.928497833,36.363396446],[-93.930542812,36.363114516],[-93.944337055,36.365274522],[-93.952249615,36.372828119],[-93.953690255,36.376304867],[-93.964861561,36.393787914]]]]}}, {"type" : "Feature", "properties" : {"zone_id" : "Z-06", "name" : "Township of Walnut", "county" : "Benton", "premises" : 538, "commercial" : 7, "median_value" : 420638, "phase" : 2, "pct_los" : 86}, "geometry" : {"type":"MultiPolygon","coordinates":[[[[-93.980123374,36.323784185],[-93.98257542,36.324582851],[-93.982741347,36.326379364],[-93.976162007,36.332830119],[-93.963096748,36.34578851],[-93.960981532,36.347853192],[-93.946079857,36.355688939],[-93.941800632,36.355489936],[-93.940952768,36.354228657],[-93.92707067,36.339505068],[-93.922624403,36.340766585],[-93.922263344,36.340878869],[-93.912001345,36.331572485],[-93.911129684,36.330762482],[-93.92308153,36.316981374],[-93.927818465,36.313048981],[-93.949152028,36.315003943],[-93.964073537,36.312912264],[-93.980123374,36.323784185]]]]}}, {"type" : "Feature", "properties" : {"zone_id" : "Z-07", "name" : "Blue Springs Village", "county" : "Washington", "premises" : 531, "commercial" : 16, "median_value" : 241500, "phase" : 3, "pct_los" : 64}, "geometry" : {"type":"MultiPolygon","coordinates":[[[[-94.044997309,36.202223305],[-94.043033832,36.205374484],[-94.039045783,36.206729805],[-94.032834163,36.207994518],[-94.031795041,36.207969853],[-94.027582546,36.206629726],[-94.024698961,36.203402674],[-94.005899098,36.189466681],[-93.996246432,36.186303431],[-93.995553997,36.186046622],[-93.994506964,36.185571525],[-93.992245509,36.183582976],[-93.994282288,36.180663714],[-94.002007124,36.172545298],[-94.0100303,36.167100586],[-94.015031156,36.164010314],[-94.017901569,36.162776341],[-94.029362217,36.158537378],[-94.031528458,36.158809095],[-94.037608012,36.164859022],[-94.043859983,36.173505684],[-94.04518643,36.188029533],[-94.044997309,36.202223305]]]]}}, {"type" : "Feature", "properties" : {"zone_id" : "Z-08", "name" : "Ventris Public Use Area", "county" : "Benton", "premises" : 510, "commercial" : 2, "median_value" : 471018, "phase" : 2, "pct_los" : 84}, "geometry" : {"type":"MultiPolygon","coordinates":[[[[-93.999235278,36.379989395],[-93.995078471,36.386919201],[-93.98096252,36.393179325],[-93.972929213,36.393775106],[-93.964937222,36.390512945],[-93.953000068,36.373415792],[-93.952306748,36.372137516],[-93.954581849,36.364023643],[-93.963425246,36.347778631],[-93.964334877,36.346411016],[-93.96720222,36.343078643],[-93.983190433,36.32889697],[-93.99338198,36.332274825],[-93.9945788,36.332672293],[-93.997233714,36.333845723],[-93.999372298,36.335301548],[-94.000324149,36.336087429],[-93.998297855,36.346659295],[-94.01421452,36.356432488],[-94.015740811,36.356262772],[-94.014052064,36.357259524],[-94.000021631,36.373382422],[-94.000529507,36.376329597],[-93.999235278,36.379989395]]]]}}, {"type" : "Feature", "properties" : {"zone_id" : "Z-09", "name" : "Mundell (historical)", "county" : "Carroll", "premises" : 462, "commercial" : 5, "median_value" : 546550, "phase" : 2, "pct_los" : 93}, "geometry" : {"type":"MultiPolygon","coordinates":[[[[-93.88121326,36.391723696],[-93.871510848,36.403263898],[-93.86829184,36.403666275],[-93.867553497,36.402889099],[-93.856051513,36.392166451],[-93.850661029,36.38437963],[-93.85106841,36.381356278],[-93.851608787,36.37776405],[-93.842607442,36.36738786],[-93.841318045,36.367227087],[-93.836970909,36.361695499],[-93.837932188,36.359066545],[-93.844106253,36.353916048],[-93.846571191,36.352120483],[-93.855188086,36.348664391],[-93.866806207,36.341905122],[-93.881063053,36.339830986],[-93.892256765,36.347219128],[-93.896264214,36.354432162],[-93.893266804,36.364948036],[-93.888467253,36.379378899],[-93.88121326,36.391723696]]]]}}, {"type" : "Feature", "properties" : {"zone_id" : "Z-10", "name" : "War Eagle Cove", "county" : "Washington", "premises" : 440, "commercial" : 6, "median_value" : 215425, "phase" : 4, "pct_los" : 75}, "geometry" : {"type":"MultiPolygon","coordinates":[[[[-94.027357766,36.208863449],[-94.016082468,36.22066713],[-94.013238527,36.223464061],[-94.009426094,36.22676799],[-94.008085044,36.227349717],[-93.995137992,36.231272125],[-93.988315321,36.228130854],[-93.969421905,36.216263538],[-93.963737441,36.21641353],[-93.961019536,36.21635263],[-93.959811151,36.216240595],[-93.94538087,36.209224417],[-93.94808075,36.204781569],[-93.950395007,36.201984203],[-93.967595931,36.186853165],[-93.970745624,36.184897032],[-93.974236293,36.184191018],[-93.990329752,36.184123975],[-93.99543999,36.186360027],[-93.99593034,36.186848489],[-94.009166167,36.205326248],[-94.025091361,36.20585047],[-94.027357766,36.208863449]]]]}}, {"type" : "Feature", "properties" : {"zone_id" : "Z-11", "name" : "Puckett (historical)", "county" : "Benton", "premises" : 432, "commercial" : 1, "median_value" : 232922, "phase" : 3, "pct_los" : 74}, "geometry" : {"type":"MultiPolygon","coordinates":[[[[-94.059471048,36.370843359],[-94.078558855,36.386408395],[-94.071841208,36.389669667],[-94.046031285,36.389065934],[-94.03948219,36.391862137],[-94.036037608,36.393536944],[-94.029559268,36.396290088],[-94.024528839,36.398331869],[-94.014280192,36.397981258],[-94.011595418,36.396496654],[-94.0071569,36.393510999],[-93.997406541,36.384894455],[-93.999432976,36.382552964],[-94.014428149,36.3658509],[-94.017307622,36.356928844],[-94.018624469,36.35589895],[-94.039144631,36.354255965],[-94.044597056,36.358536423],[-94.059471048,36.370843359]]]]}}, {"type" : "Feature", "properties" : {"zone_id" : "Z-12", "name" : "Beaver Dam", "county" : "Carroll", "premises" : 405, "commercial" : 14, "median_value" : 404650, "phase" : 3, "pct_los" : 80}, "geometry" : {"type":"MultiPolygon","coordinates":[[[[-93.839530313,36.405282134],[-93.838597374,36.422062693],[-93.835144793,36.417341141],[-93.820438004,36.407375224],[-93.809364121,36.405125593],[-93.799724548,36.3985143],[-93.792102169,36.383062613],[-93.791760291,36.379278439],[-93.793939454,36.369477425],[-93.802366983,36.365922852],[-93.818875132,36.362894905],[-93.826219354,36.361109909],[-93.830076606,36.36182244],[-93.835695327,36.364038298],[-93.847119308,36.380114186],[-93.849662577,36.383633665],[-93.855486105,36.392592721],[-93.848810064,36.402846654],[-93.848165766,36.402800372],[-93.839530313,36.405282134]]]]}}, {"type" : "Feature", "properties" : {"zone_id" : "Z-13", "name" : "Vista Shores", "county" : "Benton", "premises" : 285, "commercial" : 8, "median_value" : 309755, "phase" : 3, "pct_los" : 80}, "geometry" : {"type":"MultiPolygon","coordinates":[[[[-93.943713387,36.440763033],[-93.944993949,36.443535089],[-93.934346334,36.44253741],[-93.915727496,36.441161541],[-93.900828307,36.426414388],[-93.898749836,36.420566418],[-93.882631126,36.406156711],[-93.897446796,36.398750173],[-93.908006218,36.398762713],[-93.908997697,36.398773109],[-93.921214549,36.400056288],[-93.944013435,36.401605513],[-93.951705833,36.401585766],[-93.953865264,36.402585],[-93.946783042,36.406680849],[-93.940611817,36.430726909],[-93.943713387,36.440763033]]]]}}, {"type" : "Feature", "properties" : {"zone_id" : "Z-14", "name" : "Huffman Ford (historical)", "county" : "Benton", "premises" : 280, "commercial" : 7, "median_value" : 475792, "phase" : 3, "pct_los" : 82}, "geometry" : {"type":"MultiPolygon","coordinates":[[[[-93.907729219,36.441535103],[-93.899412022,36.464122186],[-93.886805596,36.458956496],[-93.857770417,36.447651096],[-93.839202187,36.443581543],[-93.835589047,36.439351614],[-93.834048208,36.433334443],[-93.83985988,36.428853128],[-93.868846442,36.404221504],[-93.871397302,36.404137938],[-93.879786894,36.405566687],[-93.882233041,36.408107801],[-93.893198995,36.42520794],[-93.90621286,36.439030063],[-93.907620108,36.440714253],[-93.907729219,36.441535103]]]]}}, {"type" : "Feature", "properties" : {"zone_id" : "Z-15", "name" : "Blue Springs Use Area", "county" : "Washington", "premises" : 259, "commercial" : 3, "median_value" : 253200, "phase" : 4, "pct_los" : 78}, "geometry" : {"type":"MultiPolygon","coordinates":[[[[-94.017184513,36.161542457],[-94.016544984,36.162447638],[-94.013528837,36.164214646],[-94.008426272,36.167127115],[-94.000829665,36.172735771],[-93.997972811,36.174612281],[-93.989616607,36.179886281],[-93.988099384,36.178482144],[-93.984202807,36.173626789],[-93.975880433,36.169607217],[-93.970277233,36.161848677],[-93.967160884,36.158693052],[-93.967989589,36.150557812],[-93.975510813,36.140794732],[-93.98222404,36.139097879],[-93.98989584,36.134220575],[-93.993106801,36.133853302],[-94.005724841,36.134022847],[-94.016859578,36.138435932],[-94.018637287,36.140542989],[-94.015422463,36.14691517],[-94.018600296,36.154993114],[-94.017184513,36.161542457]]]]}}, {"type" : "Feature", "properties" : {"zone_id" : "Z-16", "name" : "Township of Prairie", "county" : "Carroll", "premises" : 234, "commercial" : 0, "median_value" : 243900, "phase" : 4, "pct_los" : 52}, "geometry" : {"type":"MultiPolygon","coordinates":[[[[-93.861940777,36.326657772],[-93.853780054,36.346204354],[-93.844664378,36.352811691],[-93.833170217,36.360223785],[-93.810129266,36.362234743],[-93.796810779,36.362571377],[-93.7912722,36.362552596],[-93.786104917,36.353240544],[-93.791431382,36.336415572],[-93.794851678,36.314985622],[-93.799191877,36.31041551],[-93.810710296,36.297338528],[-93.812805795,36.298060749],[-93.826306608,36.302924725],[-93.840891857,36.30260662],[-93.85271961,36.322407546],[-93.861289103,36.322979434],[-93.861940777,36.326657772]]]]}}, {"type" : "Feature", "properties" : {"zone_id" : "Z-17", "name" : "Rambo Riviera", "county" : "Benton", "premises" : 228, "commercial" : 3, "median_value" : 304032, "phase" : 4, "pct_los" : 72}, "geometry" : {"type":"MultiPolygon","coordinates":[[[[-93.914541637,36.31823593],[-93.912365479,36.320751009],[-93.909308025,36.323724615],[-93.907978612,36.321860721],[-93.897670979,36.312607626],[-93.888378171,36.320290114],[-93.885086835,36.334144672],[-93.881807031,36.337190848],[-93.88002386,36.337997858],[-93.878939106,36.336385293],[-93.8663472,36.323636386],[-93.869764145,36.319074995],[-93.859218553,36.304400458],[-93.856897856,36.304603471],[-93.852251971,36.2944452],[-93.854566704,36.290820129],[-93.867090286,36.284525502],[-93.869036897,36.283590899],[-93.875124012,36.285893708],[-93.878766174,36.2864668],[-93.893388983,36.276266293],[-93.895188371,36.27423067],[-93.897174323,36.273974995],[-93.898637147,36.2741946],[-93.909541303,36.280731321],[-93.914343479,36.28754203],[-93.915300281,36.289167047],[-93.915481,36.29163906],[-93.911856831,36.296017161],[-93.909790882,36.299875607],[-93.914039342,36.316066442],[-93.914541637,36.31823593]]]]}}, {"type" : "Feature", "properties" : {"zone_id" : "Z-18", "name" : "Cook Ford", "county" : "Benton", "premises" : 179, "commercial" : 1, "median_value" : 176470, "phase" : 4, "pct_los" : 61}, "geometry" : {"type":"MultiPolygon","coordinates":[[[[-94.000318959,36.263285937],[-93.994568307,36.279278493],[-93.9858769,36.283048276],[-93.982288126,36.279455405],[-93.950711618,36.256172444],[-93.945141774,36.257211563],[-93.928959355,36.24920017],[-93.92554569,36.241908021],[-93.924030849,36.236699416],[-93.925271082,36.228223028],[-93.92598226,36.226602343],[-93.928332642,36.222023479],[-93.939342878,36.215050603],[-93.945499404,36.212747491],[-93.950304852,36.213117498],[-93.97255466,36.223389825],[-93.980665191,36.228024427],[-93.982384247,36.229414909],[-93.989939725,36.236854141],[-94.000318959,36.263285937]]]]}}]}
