{"type" : "FeatureCollection", "features" : [{"type" : "Feature", "properties" : {"priority" : 1, "zone" : "Z-08", "elev_ft" : 1371, "new" : 1695, "cum" : 1695, "vis8km" : 1695, "site" : "improved (existing owner)", "owner" : "GOIN, BARBARA J & JOHN B", "primary" : true}, "geometry" : {"type":"Point","coordinates":[-93.999637465,36.369102056]}}, {"type" : "Feature", "properties" : {"priority" : 2, "zone" : "Z-04", "elev_ft" : 1411, "new" : 1325, "cum" : 3020, "vis8km" : 1560, "site" : "vacant (acquire/lease)", "owner" : "IN THE PINES LIVING TRUST- STANLEY, JAIME L & GERI", "primary" : true}, "geometry" : {"type":"Point","coordinates":[-94.009070509,36.254640475]}}, {"type" : "Feature", "properties" : {"priority" : 3, "zone" : "Z-13", "elev_ft" : 1808, "new" : 1023, "cum" : 4043, "vis8km" : 1127, "site" : "improved (existing owner)", "owner" : "COBB REVOCABLE TRUST-BEN A & CHRISTENA E", "primary" : true}, "geometry" : {"type":"Point","coordinates":[-93.916984409,36.40166639]}}, {"type" : "Feature", "properties" : {"priority" : 4, "zone" : "Z-07", "elev_ft" : 1401, "new" : 591, "cum" : 4634, "vis8km" : 836, "site" : "vacant (acquire/lease)", "owner" : "WOLF, HAZEL; NOB HILL HOLINESS CHURCH", "primary" : true}, "geometry" : {"type":"Point","coordinates":[-93.998235301,36.182131291]}}, {"type" : "Feature", "properties" : {"priority" : 5, "zone" : "Z-16", "elev_ft" : 1509, "new" : 547, "cum" : 5181, "vis8km" : 786, "site" : "vacant (acquire/lease)", "owner" : "MURFEE GEORGE PATRICK II & CHELSIE NICOLE", "primary" : true}, "geometry" : {"type":"Point","coordinates":[-93.847868724,36.347289761]}}, {"type" : "Feature", "properties" : {"priority" : 6, "zone" : "Z-01", "elev_ft" : 1381, "new" : 525, "cum" : 5706, "vis8km" : 1677, "site" : "improved (existing owner)", "owner" : "COLLINS REVOCABLE TRUST, LEON", "primary" : true}, "geometry" : {"type":"Point","coordinates":[-94.03060994,36.324791397]}}, {"type" : "Feature", "properties" : {"priority" : 7, "zone" : "Z-03", "elev_ft" : 1414, "new" : 320, "cum" : 6026, "vis8km" : 809, "site" : "improved (existing owner)", "owner" : "DUNGAN, AMY & DUNGAN, MAKAYLA", "primary" : true}, "geometry" : {"type":"Point","coordinates":[-94.073458593,36.252706932]}}, {"type" : "Feature", "properties" : {"priority" : 8, "zone" : "Z-12", "elev_ft" : 1490, "new" : 268, "cum" : 6294, "vis8km" : 825, "site" : "improved (existing owner)", "owner" : "SCHMIDT ANTON W TRUST EST ESTATE", "primary" : true}, "geometry" : {"type":"Point","coordinates":[-93.843034585,36.391317788]}}, {"type" : "Feature", "properties" : {"priority" : 9, "zone" : "Z-11", "elev_ft" : 1355, "new" : 251, "cum" : 6545, "vis8km" : 1234, "site" : "vacant (acquire/lease)", "owner" : "GULBRANSON, JEREMY J & RACHEL O", "primary" : true}, "geometry" : {"type":"Point","coordinates":[-94.041902465,36.380190313]}}, {"type" : "Feature", "properties" : {"priority" : 10, "zone" : "Z-08", "elev_ft" : 1365, "new" : 197, "cum" : 6742, "vis8km" : 1561, "site" : "improved (existing owner)", "owner" : "FREEMAN, SCOTT", "primary" : false}, "geometry" : {"type":"Point","coordinates":[-93.98379665,36.321428267]}}, {"type" : "Feature", "properties" : {"priority" : 11, "zone" : "Z-10", "elev_ft" : 1385, "new" : 180, "cum" : 6922, "vis8km" : 857, "site" : "vacant (acquire/lease)", "owner" : "BENTON COUNTY", "primary" : true}, "geometry" : {"type":"Point","coordinates":[-93.992255412,36.223505154]}}, {"type" : "Feature", "properties" : {"priority" : 12, "zone" : "Z-04", "elev_ft" : 1388, "new" : 127, "cum" : 7049, "vis8km" : 1609, "site" : "vacant (acquire/lease)", "owner" : "SLECHTA, DONOVAN", "primary" : false}, "geometry" : {"type":"Point","coordinates":[-94.024795374,36.265295472]}}, {"type" : "Feature", "properties" : {"priority" : 13, "zone" : "Z-02", "elev_ft" : 1398, "new" : 122, "cum" : 7171, "vis8km" : 1356, "site" : "improved (existing owner)", "owner" : "BARNES TRUST, CLYDE JAMES III & LE ANN & BARNES, B", "primary" : true}, "geometry" : {"type":"Point","coordinates":[-94.054432251,36.341726485]}}, {"type" : "Feature", "properties" : {"priority" : 14, "zone" : "Z-06", "elev_ft" : 1398, "new" : 114, "cum" : 7285, "vis8km" : 1017, "site" : "vacant (acquire/lease)", "owner" : "MILLIGAN BYPASS TRUST, STEVEN E & PRESLEY BYPASS T", "primary" : true}, "geometry" : {"type":"Point","coordinates":[-93.956000178,36.31966105]}}, {"type" : "Feature", "properties" : {"priority" : 15, "zone" : "Z-15", "elev_ft" : 1339, "new" : 91, "cum" : 7376, "vis8km" : 533, "site" : "improved (existing owner)", "owner" : "TRESLER, CLAY", "primary" : true}, "geometry" : {"type":"Point","coordinates":[-93.996175867,36.147543398]}}, {"type" : "Feature", "properties" : {"priority" : 16, "zone" : "Z-17", "elev_ft" : 1378, "new" : 84, "cum" : 7460, "vis8km" : 501, "site" : "vacant (acquire/lease)", "owner" : "CONNER TRUST, DAVID C- CONNER, SANDRA K", "primary" : true}, "geometry" : {"type":"Point","coordinates":[-93.885527138,36.321462691]}}, {"type" : "Feature", "properties" : {"priority" : 17, "zone" : "Z-14", "elev_ft" : 1526, "new" : 80, "cum" : 7540, "vis8km" : 471, "site" : "improved (existing owner)", "owner" : "SHAH, ARPIT & BLEECKER, INGE MARIA REGINA DE", "primary" : true}, "geometry" : {"type":"Point","coordinates":[-93.888698166,36.440521983]}}, {"type" : "Feature", "properties" : {"priority" : 18, "zone" : "Z-18", "elev_ft" : 1388, "new" : 66, "cum" : 7606, "vis8km" : 917, "site" : "vacant (acquire/lease)", "owner" : "NORTHWEST ARKANSAS PROPERTIES", "primary" : true}, "geometry" : {"type":"Point","coordinates":[-93.993310697,36.273489868]}}, {"type" : "Feature", "properties" : {"priority" : 19, "zone" : "Z-12", "elev_ft" : 1506, "new" : 61, "cum" : 7667, "vis8km" : 299, "site" : "improved (existing owner)", "owner" : "MUELLER CHRISTOPHER E", "primary" : false}, "geometry" : {"type":"Point","coordinates":[-93.807594341,36.369273829]}}, {"type" : "Feature", "properties" : {"priority" : 20, "zone" : "Z-05", "elev_ft" : 1519, "new" : 54, "cum" : 7721, "vis8km" : 910, "site" : "vacant (acquire/lease)", "owner" : "HESTER, BARRY & BRENDA", "primary" : true}, "geometry" : {"type":"Point","coordinates":[-93.928911605,36.388919804]}}, {"type" : "Feature", "properties" : {"priority" : 21, "zone" : "Z-18", "elev_ft" : 1381, "new" : 48, "cum" : 7769, "vis8km" : 258, "site" : "improved (existing owner)", "owner" : "BURKE, MICHAEL H & TIFFANY F", "primary" : false}, "geometry" : {"type":"Point","coordinates":[-93.932481205,36.233693748]}}, {"type" : "Feature", "properties" : {"priority" : 22, "zone" : "Z-09", "elev_ft" : 1457, "new" : 42, "cum" : 7811, "vis8km" : 1007, "site" : "improved (existing owner)", "owner" : "WHITEHEAD JOHN R & CHRISTINE R", "primary" : true}, "geometry" : {"type":"Point","coordinates":[-93.877033591,36.383992428]}}, {"type" : "Feature", "properties" : {"priority" : 23, "zone" : "Z-16", "elev_ft" : 1496, "new" : 39, "cum" : 7850, "vis8km" : 372, "site" : "improved (existing owner)", "owner" : "BUTLER DEREK & HEATHER", "primary" : false}, "geometry" : {"type":"Point","coordinates":[-93.825457839,36.354097725]}}, {"type" : "Feature", "properties" : {"priority" : 24, "zone" : "Z-04", "elev_ft" : 1398, "new" : 36, "cum" : 7886, "vis8km" : 996, "site" : "vacant (acquire/lease)", "owner" : "CONTENTMENT ON BEAVER LAKE LLC", "primary" : false}, "geometry" : {"type":"Point","coordinates":[-94.004678597,36.249774701]}}, {"type" : "Feature", "properties" : {"priority" : 25, "zone" : "Z-11", "elev_ft" : 1355, "new" : 34, "cum" : 7920, "vis8km" : 1345, "site" : "improved (existing owner)", "owner" : "TRAVIS, DUSTI", "primary" : false}, "geometry" : {"type":"Point","coordinates":[-94.015546468,36.377638638]}}, {"type" : "Feature", "properties" : {"priority" : 26, "zone" : "Z-09", "elev_ft" : 1457, "new" : 32, "cum" : 7952, "vis8km" : 693, "site" : "vacant (acquire/lease)", "owner" : "SHEPARD TIMOTHY G & KAYLENE", "primary" : false}, "geometry" : {"type":"Point","coordinates":[-93.849577953,36.384268477]}}, {"type" : "Feature", "properties" : {"priority" : 27, "zone" : "Z-17", "elev_ft" : 1391, "new" : 26, "cum" : 7978, "vis8km" : 251, "site" : "vacant (acquire/lease)", "owner" : "TURNER, MICHAEL LEE", "primary" : false}, "geometry" : {"type":"Point","coordinates":[-93.883664767,36.298151877]}}, {"type" : "Feature", "properties" : {"priority" : 28, "zone" : "Z-10", "elev_ft" : 1407, "new" : 26, "cum" : 8004, "vis8km" : 805, "site" : "improved (existing owner)", "owner" : "BENAVIDEZ, MAYLI RAMIREZ (CONT)", "primary" : false}, "geometry" : {"type":"Point","coordinates":[-93.99593034,36.186848489]}}, {"type" : "Feature", "properties" : {"priority" : 29, "zone" : "Z-08", "elev_ft" : 1401, "new" : 24, "cum" : 8028, "vis8km" : 1075, "site" : "improved (existing owner)", "owner" : "WEINSTOCK, BRET A & TRACI", "primary" : false}, "geometry" : {"type":"Point","coordinates":[-93.961082956,36.376669173]}}, {"type" : "Feature", "properties" : {"priority" : 30, "zone" : "Z-12", "elev_ft" : 1460, "new" : 22, "cum" : 8050, "vis8km" : 606, "site" : "vacant (acquire/lease)", "owner" : "HERMONT JON PHILIP & VICKI ANNETTE", "primary" : false}, "geometry" : {"type":"Point","coordinates":[-93.833448936,36.396122205]}}]}
