{"type" : "FeatureCollection", "features" : [{"type" : "Feature", "properties" : {"a" : 1, "b" : 9, "km" : 3.99, "class" : "water long: licensed MW + diversity", "cost" : 55000}, "geometry" : {"type":"LineString","coordinates":[[-93.999637465,36.369102056],[-94.041902465,36.380190313]]}}, {"type" : "Feature", "properties" : {"a" : 1, "b" : 25, "km" : 1.71, "class" : "land: fiber/unlicensed PtP", "cost" : 8000}, "geometry" : {"type":"LineString","coordinates":[[-93.999637465,36.369102056],[-94.015546468,36.377638638]]}}, {"type" : "Feature", "properties" : {"a" : 1, "b" : 29, "km" : 3.56, "class" : "water long: licensed MW + diversity", "cost" : 55000}, "geometry" : {"type":"LineString","coordinates":[[-93.999637465,36.369102056],[-93.961082956,36.376669173]]}}, {"type" : "Feature", "properties" : {"a" : 2, "b" : 7, "km" : 5.79, "class" : "water long: licensed MW + diversity", "cost" : 55000}, "geometry" : {"type":"LineString","coordinates":[[-94.009070509,36.254640475],[-94.073458593,36.252706932]]}}, {"type" : "Feature", "properties" : {"a" : 2, "b" : 11, "km" : 3.77, "class" : "water long: licensed MW + diversity", "cost" : 55000}, "geometry" : {"type":"LineString","coordinates":[[-94.009070509,36.254640475],[-93.992255412,36.223505154]]}}, {"type" : "Feature", "properties" : {"a" : 2, "b" : 12, "km" : 1.84, "class" : "land: fiber/unlicensed PtP", "cost" : 8000}, "geometry" : {"type":"LineString","coordinates":[[-94.009070509,36.254640475],[-94.024795374,36.265295472]]}}, {"type" : "Feature", "properties" : {"a" : 2, "b" : 18, "km" : 2.53, "class" : "land: fiber/unlicensed PtP", "cost" : 8000}, "geometry" : {"type":"LineString","coordinates":[[-94.009070509,36.254640475],[-93.993310697,36.273489868]]}}, {"type" : "Feature", "properties" : {"a" : 2, "b" : 24, "km" : 0.67, "class" : "land: fiber/unlicensed PtP", "cost" : 8000}, "geometry" : {"type":"LineString","coordinates":[[-94.009070509,36.254640475],[-94.004678597,36.249774701]]}}, {"type" : "Feature", "properties" : {"a" : 3, "b" : 17, "km" : 5.00, "class" : "water long: licensed MW + diversity", "cost" : 55000}, "geometry" : {"type":"LineString","coordinates":[[-93.916984409,36.40166639],[-93.888698166,36.440521983]]}}, {"type" : "Feature", "properties" : {"a" : 3, "b" : 20, "km" : 1.77, "class" : "land: fiber/unlicensed PtP", "cost" : 8000}, "geometry" : {"type":"LineString","coordinates":[[-93.916984409,36.40166639],[-93.928911605,36.388919804]]}}, {"type" : "Feature", "properties" : {"a" : 3, "b" : 22, "km" : 4.08, "class" : "water long: licensed MW + diversity", "cost" : 55000}, "geometry" : {"type":"LineString","coordinates":[[-93.916984409,36.40166639],[-93.877033591,36.383992428]]}}, {"type" : "Feature", "properties" : {"a" : 4, "b" : 15, "km" : 3.84, "class" : "water long: licensed MW + diversity", "cost" : 55000}, "geometry" : {"type":"LineString","coordinates":[[-93.998235301,36.182131291],[-93.996175867,36.147543398]]}}, {"type" : "Feature", "properties" : {"a" : 4, "b" : 28, "km" : 0.56, "class" : "land: fiber/unlicensed PtP", "cost" : 8000}, "geometry" : {"type":"LineString","coordinates":[[-93.998235301,36.182131291],[-93.99593034,36.186848489]]}}, {"type" : "Feature", "properties" : {"a" : 5, "b" : 16, "km" : 4.43, "class" : "water long: licensed MW + diversity", "cost" : 55000}, "geometry" : {"type":"LineString","coordinates":[[-93.847868724,36.347289761],[-93.885527138,36.321462691]]}}, {"type" : "Feature", "properties" : {"a" : 5, "b" : 23, "km" : 2.15, "class" : "land: fiber/unlicensed PtP", "cost" : 8000}, "geometry" : {"type":"LineString","coordinates":[[-93.847868724,36.347289761],[-93.825457839,36.354097725]]}}, {"type" : "Feature", "properties" : {"a" : 5, "b" : 26, "km" : 4.10, "class" : "water long: licensed MW + diversity", "cost" : 55000}, "geometry" : {"type":"LineString","coordinates":[[-93.847868724,36.347289761],[-93.849577953,36.384268477]]}}, {"type" : "Feature", "properties" : {"a" : 5, "b" : 27, "km" : 6.33, "class" : "water long: licensed MW + diversity", "cost" : 55000}, "geometry" : {"type":"LineString","coordinates":[[-93.847868724,36.347289761],[-93.883664767,36.298151877]]}}, {"type" : "Feature", "properties" : {"a" : 6, "b" : 10, "km" : 4.22, "class" : "water long: licensed MW + diversity", "cost" : 55000}, "geometry" : {"type":"LineString","coordinates":[[-94.03060994,36.324791397],[-93.98379665,36.321428267]]}}, {"type" : "Feature", "properties" : {"a" : 6, "b" : 13, "km" : 2.85, "class" : "land: fiber/unlicensed PtP", "cost" : 8000}, "geometry" : {"type":"LineString","coordinates":[[-94.03060994,36.324791397],[-94.054432251,36.341726485]]}}, {"type" : "Feature", "properties" : {"a" : 7, "b" : 12, "km" : 4.59, "class" : "water long: licensed MW + diversity", "cost" : 55000}, "geometry" : {"type":"LineString","coordinates":[[-94.073458593,36.252706932],[-94.024795374,36.265295472]]}}, {"type" : "Feature", "properties" : {"a" : 8, "b" : 22, "km" : 3.16, "class" : "water long: licensed MW + diversity", "cost" : 55000}, "geometry" : {"type":"LineString","coordinates":[[-93.843034585,36.391317788],[-93.877033591,36.383992428]]}}, {"type" : "Feature", "properties" : {"a" : 8, "b" : 26, "km" : 0.98, "class" : "land: fiber/unlicensed PtP", "cost" : 8000}, "geometry" : {"type":"LineString","coordinates":[[-93.843034585,36.391317788],[-93.849577953,36.384268477]]}}, {"type" : "Feature", "properties" : {"a" : 8, "b" : 30, "km" : 1.01, "class" : "land: fiber/unlicensed PtP", "cost" : 8000}, "geometry" : {"type":"LineString","coordinates":[[-93.843034585,36.391317788],[-93.833448936,36.396122205]]}}, {"type" : "Feature", "properties" : {"a" : 9, "b" : 13, "km" : 4.41, "class" : "water long: licensed MW + diversity", "cost" : 55000}, "geometry" : {"type":"LineString","coordinates":[[-94.041902465,36.380190313],[-94.054432251,36.341726485]]}}, {"type" : "Feature", "properties" : {"a" : 9, "b" : 25, "km" : 2.38, "class" : "water short: unlicensed 60/5GHz PtP", "cost" : 9000}, "geometry" : {"type":"LineString","coordinates":[[-94.041902465,36.380190313],[-94.015546468,36.377638638]]}}, {"type" : "Feature", "properties" : {"a" : 10, "b" : 14, "km" : 2.50, "class" : "land: fiber/unlicensed PtP", "cost" : 8000}, "geometry" : {"type":"LineString","coordinates":[[-93.98379665,36.321428267],[-93.956000178,36.31966105]]}}, {"type" : "Feature", "properties" : {"a" : 11, "b" : 21, "km" : 5.49, "class" : "water long: licensed MW + diversity", "cost" : 55000}, "geometry" : {"type":"LineString","coordinates":[[-93.992255412,36.223505154],[-93.932481205,36.233693748]]}}, {"type" : "Feature", "properties" : {"a" : 11, "b" : 24, "km" : 3.12, "class" : "water long: licensed MW + diversity", "cost" : 55000}, "geometry" : {"type":"LineString","coordinates":[[-93.992255412,36.223505154],[-94.004678597,36.249774701]]}}, {"type" : "Feature", "properties" : {"a" : 11, "b" : 28, "km" : 4.08, "class" : "water long: licensed MW + diversity", "cost" : 55000}, "geometry" : {"type":"LineString","coordinates":[[-93.992255412,36.223505154],[-93.99593034,36.186848489]]}}, {"type" : "Feature", "properties" : {"a" : 12, "b" : 24, "km" : 2.50, "class" : "land: fiber/unlicensed PtP", "cost" : 8000}, "geometry" : {"type":"LineString","coordinates":[[-94.024795374,36.265295472],[-94.004678597,36.249774701]]}}, {"type" : "Feature", "properties" : {"a" : 14, "b" : 18, "km" : 6.12, "class" : "land: fiber/unlicensed PtP", "cost" : 8000}, "geometry" : {"type":"LineString","coordinates":[[-93.956000178,36.31966105],[-93.993310697,36.273489868]]}}, {"type" : "Feature", "properties" : {"a" : 15, "b" : 28, "km" : 4.36, "class" : "water long: licensed MW + diversity", "cost" : 55000}, "geometry" : {"type":"LineString","coordinates":[[-93.996175867,36.147543398],[-93.99593034,36.186848489]]}}, {"type" : "Feature", "properties" : {"a" : 16, "b" : 27, "km" : 2.59, "class" : "water short: unlicensed 60/5GHz PtP", "cost" : 9000}, "geometry" : {"type":"LineString","coordinates":[[-93.885527138,36.321462691],[-93.883664767,36.298151877]]}}, {"type" : "Feature", "properties" : {"a" : 17, "b" : 22, "km" : 6.36, "class" : "water long: licensed MW + diversity", "cost" : 55000}, "geometry" : {"type":"LineString","coordinates":[[-93.888698166,36.440521983],[-93.877033591,36.383992428]]}}, {"type" : "Feature", "properties" : {"a" : 18, "b" : 24, "km" : 2.82, "class" : "land: fiber/unlicensed PtP", "cost" : 8000}, "geometry" : {"type":"LineString","coordinates":[[-93.993310697,36.273489868],[-94.004678597,36.249774701]]}}, {"type" : "Feature", "properties" : {"a" : 19, "b" : 23, "km" : 2.32, "class" : "water short: unlicensed 60/5GHz PtP", "cost" : 9000}, "geometry" : {"type":"LineString","coordinates":[[-93.807594341,36.369273829],[-93.825457839,36.354097725]]}}, {"type" : "Feature", "properties" : {"a" : 19, "b" : 30, "km" : 3.77, "class" : "water long: licensed MW + diversity", "cost" : 55000}, "geometry" : {"type":"LineString","coordinates":[[-93.807594341,36.369273829],[-93.833448936,36.396122205]]}}, {"type" : "Feature", "properties" : {"a" : 20, "b" : 29, "km" : 3.19, "class" : "water long: licensed MW + diversity", "cost" : 55000}, "geometry" : {"type":"LineString","coordinates":[[-93.928911605,36.388919804],[-93.961082956,36.376669173]]}}, {"type" : "Feature", "properties" : {"a" : 21, "b" : 24, "km" : 6.73, "class" : "water long: licensed MW + diversity", "cost" : 55000}, "geometry" : {"type":"LineString","coordinates":[[-93.932481205,36.233693748],[-94.004678597,36.249774701]]}}, {"type" : "Feature", "properties" : {"a" : 22, "b" : 26, "km" : 2.46, "class" : "land: fiber/unlicensed PtP", "cost" : 8000}, "geometry" : {"type":"LineString","coordinates":[[-93.877033591,36.383992428],[-93.849577953,36.384268477]]}}, {"type" : "Feature", "properties" : {"a" : 26, "b" : 30, "km" : 1.95, "class" : "land: fiber/unlicensed PtP", "cost" : 8000}, "geometry" : {"type":"LineString","coordinates":[[-93.849577953,36.384268477],[-93.833448936,36.396122205]]}}]}
